[{"OBJECT_NAME":"PHISAT 2","OBJECT_ID":"2024-149C","EPOCH":"2026-03-09T18:55:12.732384","MEAN_MOTION":15.29548632,"ECCENTRICITY":0.00011753,"INCLINATION":97.3806,"RA_OF_ASC_NODE":148.6498,"ARG_OF_PERICENTER":168.623,"MEAN_ANOMALY":191.5037,"EPHEMERIS_TYPE":0,"CLASSIFICATION_TYPE":"U","NORAD_CAT_ID":60470,"ELEMENT_SET_NO":999,"REV_AT_EPOCH":8679,"BSTAR":0.00031420974,"MEAN_MOTION_DOT":8.925e-5,"MEAN_MOTION_DDOT":0},{"OBJECT_NAME":"STARLINK-32959","OBJECT_ID":"2025-076A","EPOCH":"2026-03-09T02:10:53.692608","MEAN_MOTION":15.27618112,"ECCENTRICITY":0.0001663,"INCLINATION":43.0013,"RA_OF_ASC_NODE":329.0575,"ARG_OF_PERICENTER":269.6925,"MEAN_ANOMALY":90.3736,"EPHEMERIS_TYPE":0,"CLASSIFICATION_TYPE":"U","NORAD_CAT_ID":63569,"ELEMENT_SET_NO":999,"REV_AT_EPOCH":5169,"BSTAR":0.0015507218,"MEAN_MOTION_DOT":0.00042708,"MEAN_MOTION_DDOT":0}]
