PHISAT 2                
1 60470U 24149C   26068.78834181  .00008925  00000+0  31421-3 0  9996
2 60470  97.3806 148.6498 0001175 168.6230 191.5037 15.29548631 86792
STARLINK-32959          
1 63569U 25076A   26068.09089922  .00042708  00000+0  15507-2 0  9990
2 63569  43.0013 329.0575 0001663 269.6925  90.3736 15.27618112 51691
